[{"OBJECT_NAME":"ICEYE-X31","OBJECT_ID":"2023-174AJ","EPOCH":"2026-03-09T23:06:20.433600","MEAN_MOTION":15.30950809,"ECCENTRICITY":0.00015021,"INCLINATION":97.3851,"RA_OF_ASC_NODE":144.9524,"ARG_OF_PERICENTER":332.6589,"MEAN_ANOMALY":27.4572,"EPHEMERIS_TYPE":0,"CLASSIFICATION_TYPE":"U","NORAD_CAT_ID":58288,"ELEMENT_SET_NO":999,"REV_AT_EPOCH":12955,"BSTAR":0.00066288467,"MEAN_MOTION_DOT":0.00019777,"MEAN_MOTION_DDOT":0},{"OBJECT_NAME":"STARLINK-35923","OBJECT_ID":"2025-271AA","EPOCH":"2026-03-09T12:08:45.169440","MEAN_MOTION":15.30172911,"ECCENTRICITY":0.00011238,"INCLINATION":53.158,"RA_OF_ASC_NODE":141.1326,"ARG_OF_PERICENTER":81.8561,"MEAN_ANOMALY":278.2567,"EPHEMERIS_TYPE":0,"CLASSIFICATION_TYPE":"U","NORAD_CAT_ID":66641,"ELEMENT_SET_NO":999,"REV_AT_EPOCH":1753,"BSTAR":0.00028851192,"MEAN_MOTION_DOT":8.188e-5,"MEAN_MOTION_DDOT":0}]
